[{"OBJECT_NAME":"STARLINK-30292","OBJECT_ID":"2023-141E","EPOCH":"2026-03-09T21:16:57.992448","MEAN_MOTION":15.30188902,"ECCENTRICITY":0.00011205,"INCLINATION":53.1598,"RA_OF_ASC_NODE":282.8269,"ARG_OF_PERICENTER":87.113,"MEAN_ANOMALY":272.9999,"EPHEMERIS_TYPE":0,"CLASSIFICATION_TYPE":"U","NORAD_CAT_ID":57844,"ELEMENT_SET_NO":999,"REV_AT_EPOCH":14036,"BSTAR":1.9332501e-5,"MEAN_MOTION_DOT":2.13e-6,"MEAN_MOTION_DDOT":0},{"OBJECT_NAME":"CZ-2C R\/B","OBJECT_ID":"2017-085D","EPOCH":"2026-03-09T07:36:19.955232","MEAN_MOTION":15.36259494,"ECCENTRICITY":0.00550258,"INCLINATION":34.6583,"RA_OF_ASC_NODE":163.0948,"ARG_OF_PERICENTER":204.4819,"MEAN_ANOMALY":155.3278,"EPHEMERIS_TYPE":0,"CLASSIFICATION_TYPE":"U","NORAD_CAT_ID":43084,"ELEMENT_SET_NO":999,"REV_AT_EPOCH":45326,"BSTAR":0.00049058122,"MEAN_MOTION_DOT":0.00018774,"MEAN_MOTION_DDOT":0}]
